2024-052F               
1 59285U 24052F   24103.61322017  .00014583  00000+0  50602-3 0  9990
2 59285  50.0991 118.7621 0009664  12.8921 347.2284 15.29929290  3426
DRAGON CRS-30           
1 59287U 24054A   24103.53403064  .00013823  00000+0  24865-3 0  9995
2 59287  51.6377 280.9343 0004711  58.5657 301.5792 15.50122076448361
SOYUZ-MS 25             
1 59294U 24055A   24103.53403064  .00013823  00000+0  24865-3 0  9994
2 59294  51.6377 280.9343 0004711  58.5657 301.5792 15.50122076448369
STARLINK-31463          
1 59296U 24056A   24103.58334491 -.00084937  00000+0 -58481-3 0  9996
2 59296  43.0004 247.0652 0001750 271.9040  68.6566 15.73853593  4219
STARLINK-31487          
1 59297U 24056B   24103.58334491 -.00054915  00000+0 -37536-3 0  9998
2 59297  43.0005 247.0547 0002345 335.4707   9.0545 15.73866871  4311
STARLINK-31386          
1 59298U 24056C   24103.58334491 -.00031306  00000+0 -21196-3 0  9993
2 59298  43.0005 247.0603 0001941 324.9680  17.5409 15.73872932  3945
STARLINK-31409          
1 59299U 24056D   24103.58334491 -.00002755  00000+0 -15704-4 0  9999
2 59299  43.0005 247.0501 0002119 347.5195 359.0766 15.73805468  4315
STARLINK-31489          
1 59300U 24056E   24103.58334491  .00082700  00000+0  56480-3 0  9993
2 59300  43.0005 247.0452 0001834 297.1176  51.3811 15.73839737  4213
STARLINK-31502          
1 59301U 24056F   24103.58334491 -.00022380  00000+0 -15061-3 0  9994
2 59301  43.0006 247.0395 0001844 292.6975  57.8541 15.73848704  3943
STARLINK-31447          
1 59302U 24056G   24103.58334491 -.00064744  00000+0 -44370-3 0  9990
2 59302  43.0005 247.0339 0001909 246.3156 106.2394 15.73865609  4219
STARLINK-31504          
1 59303U 24056H   24103.58334491 -.00031848  00000+0 -21607-3 0  9998
2 59303  43.0005 247.0301 0001442 294.7785  59.8038 15.73835291  4218
STARLINK-31474          
1 59304U 24056J   24103.58334491 -.00134726  00000+0 -93419-3 0  9998
2 59304  43.0006 247.0240 0001809 279.9738  76.6610 15.73873641  4003
STARLINK-31500          
1 59305U 24056K   24103.58334491 -.00045997  00000+0 -31437-3 0  9992
2 59305  43.0005 247.0189 0002589 200.8467 157.7796 15.73805354  4151
STARLINK-31480          
1 59306U 24056L   24103.58334491 -.00010724  00000+0 -70333-4 0  9992
2 59306  43.0005 247.0145 0001818 280.9809  79.5522 15.73867627  4055
STARLINK-31282          
1 59307U 24056M   24103.58334491  .00000103  00000+0  39292-5 0  9991
2 59307  43.0004 247.0098 0002069 318.7411  43.8436 15.73824697  4216
STARLINK-31485          
1 59308U 24056N   24103.58334491 -.00003342  00000+0 -19724-4 0  9999
2 59308  43.0005 247.0040 0001542 271.8768  92.7176 15.73828887  4213
STARLINK-31455          
1 59309U 24056P   24103.58334491  .00101926  00000+0  69370-3 0  9996
2 59309  43.0005 246.9992 0001908 286.3052  80.1675 15.73841899  4001
STARLINK-31475          
1 59310U 24056Q   24103.58334491 -.00039496  00000+0 -26910-3 0  9995
2 59310  43.0004 246.9939 0001634 241.1177 127.5138 15.73824023  4310
STARLINK-31469          
1 59311U 24056R   24103.58334491 -.00043635  00000+0 -29737-3 0  9996
2 59311  43.0006 246.9885 0001720 292.2847  78.3031 15.73855852  4319
STARLINK-31445          
1 59312U 24056S   24103.58334491 -.00005021  00000+0 -31329-4 0  9995
2 59312  43.0004 246.9834 0001679 305.7190  66.9747 15.73773021  4219
STARLINK-31495          
1 59313U 24056T   24103.58334491 -.00057678  00000+0 -39470-3 0  9995
2 59313  43.0004 246.9787 0001860 270.9982 103.6003 15.73859522  4216
STARLINK-31477          
1 59314U 24056U   24103.58334491 -.00084253  00000+0 -58046-3 0  9995
2 59314  43.0004 246.9731 0001182 266.5765 110.0801 15.73838249  4214
STARLINK-31446          
1 59315U 24056V   24103.58334491 -.00057518  00000+0 -39423-3 0  9998
2 59315  43.0005 246.9678 0001421 258.0387 120.6194 15.73823389  4219
STARLINK-31479          
1 59316U 24056W   24103.58334491  .00134436  00000+0  91897-3 0  9995
2 59316  43.0006 246.9636 0001346 258.3110 122.5369 15.73624949  4214
STARLINK-31349          
1 59317U 24056X   24103.58334491 -.00122123  00000+0 -84545-3 0  9990
2 59317  43.0005 246.9581 0001664 297.1427  85.4875 15.73868322  4267
STARLINK-31464          
1 59318U 24056Y   24103.58334491 -.00071122  00000+0 -48868-3 0  9991
2 59318  43.0005 246.9542 0001717 270.4631 114.1853 15.73838851  4210
STARLINK-31402          
1 59320U 24057A   24103.58334491 -.01719050  00000+0 -14902-1 0  9995
2 59320  42.9994 208.6639 0000906 279.1265 209.7251 15.71330964  4042
STARLINK-31578          
1 59321U 24057B   24103.30611867 -.00446679  00000+0 -33680-2 0  9999
2 59321  42.9993 210.3274 0001696 283.2122  76.8557 15.72839865  2755
STARLINK-31530          
1 59322U 24057C   24103.49636480 -.00767737  00000+0 -61780-2 0  9991
2 59322  42.9999 209.1745 0000782 279.7246  80.3533 15.72229059  3969
STARLINK-31565          
1 59323U 24057D   24103.43215574 -.00481512  00000+0 -36971-2 0  9991
2 59323  42.9995 209.5541 0000913 274.6307  85.4457 15.72519283  2772
STARLINK-31570          
1 59324U 24057E   24103.30544391 -.00442921  00000+0 -33272-2 0  9992
2 59324  42.9994 210.3239 0000981 292.4703  67.6062 15.72920265  2757
STARLINK-31611          
1 59325U 24057F   24103.30469862 -.00657837  00000+0 -50852-2 0  9999
2 59325  42.9997 210.3172 0001179 299.3701  60.7049 15.72852172  2751
STARLINK-31632          
1 59326U 24057G   24103.30435503 -.00582784  00000+0 -44690-2 0  9996
2 59326  42.9987 210.3135 0001034 323.2921  36.7877 15.72830686  2759
STARLINK-31599          
1 59327U 24057H   24103.43106506 -.00779143  00000+0 -62438-2 0  9996
2 59327  42.9999 209.5431 0000975 223.8442 136.2349 15.72356717  2778
STARLINK-31614          
1 59328U 24057J   24103.58334491 -.01719029  00000+0 -14919-1 0  9997
2 59328  42.9996 208.6230 0001146 294.2201 210.5851 15.71301404  4058
STARLINK-31493          
1 59329U 24057K   24103.58334491 -.01719745  00000+0 -14927-1 0  9992
2 59329  42.9996 208.6175 0001268 296.5079 210.2900 15.71298619  4055
STARLINK-31634          
1 59330U 24057L   24103.55711224 -.00334750  00000+0 -26106-2 0  9995
2 59330  42.9998 208.7685 0001449 289.7258  70.3454 15.71735833  2792
STARLINK-31633          
1 59331U 24057M   24103.42960384 -.00420668  00000+0 -32091-2 0  9999
2 59331  42.9997 209.5327 0001195 298.4564  61.6184 15.72497956  2772
STARLINK-31594          
1 59332U 24057N   24103.30224393 -.00355611  00000+0 -26841-2 0  9991
2 59332  42.9995 210.2977 0001711 277.5277  82.5397 15.72559830  2750
STARLINK-31572          
1 59333U 24057P   24103.30149142 -.00579695  00000+0 -44302-2 0  9992
2 59333  43.0000 210.2906 0001938 167.8524 192.2391 15.72895074  2755
STARLINK-31573          
1 59334U 24057Q   24103.36469321 -.00602588  00000+0 -46457-2 0  9994
2 59334  42.9992 209.9027 0002030 310.0142  50.0548 15.72754254  2765
STARLINK-31588          
1 59335U 24057R   24103.36540517 -.00614129  00000+0 -47592-2 0  9997
2 59335  42.9995 209.9095 0000848 253.5603 106.5172 15.72674500  2767
STARLINK-31596          
1 59336U 24057S   24103.58334491 -.01676138  00000+0 -14540-1 0  9999
2 59336  42.9994 208.5768 0000539 278.7433 244.0220 15.71238280  4052
STARLINK-31612          
1 59337U 24057T   24103.58334491 -.01718168  00000+0 -14931-1 0  9994
2 59337  42.9994 208.5824 0000750 291.1716 229.5870 15.71273313  3991
STARLINK-31550          
1 59338U 24057U   24103.36364660 -.00644490  00000+0 -50154-2 0  9995
2 59338  43.0007 209.8971 0001770 284.5217  75.5455 15.72655552  2763
STARLINK-31473          
1 59339U 24057V   24103.58334491 -.01716206  00000+0 -14918-1 0  9992
2 59339  42.9993 208.5674 0001057 294.6880 232.0528 15.71260106  3991
STARLINK-31562          
1 59340U 24057W   24103.58334491 -.01710784  00000+0 -19408-1 0  9998
2 59340  42.9992 208.3275 0001445 276.9512 345.0108 15.64822953  4056
STARLINK-31600          
1 59341U 24057X   24103.42613973 -.00683624  00000+0 -53978-2 0  9999
2 59341  42.9994 209.5028 0002876 247.5426 112.5138 15.72416849  2774
STARLINK-31628          
1 59342U 24057Y   24103.29876526 -.00434790  00000+0 -32724-2 0  9994
2 59342  42.9997 210.2688 0002029 284.9747  75.0896 15.72846891  2756
YUNHAI-3 02             
1 59343U 24058A   24103.56716296  .00000035  00000+0  42209-4 0  9993
2 59343  98.8243 111.3644 0001246  80.5318 279.5995 14.13311331  2355
CZ-6A R/B               
1 59344U 24058B   24103.53293367  .00000143  00000+0  73601-4 0  9990
2 59344  98.8258 111.7447 0077795 313.3887  46.0832 14.28225166  2372
EUTELSAT 36D            
1 59346U 24059A   24092.19782651  .00003675  00000+0  45424-2 0  9994
2 59346  26.8972 350.5938 8209875 177.4328 194.8376  1.21523355    46
FALCON 9 R/B            
1 59347U 24059B   24102.78822253  .00005087  00000+0  57641-2 0  9998
2 59347  26.8684 348.7062 8202052 180.6090 176.2350  1.22247420   140
STARLINK-31605          
1 59348U 24060A   24103.58334491 -.00930672  00000+0 -68722-2 0  9993
2 59348  43.0006 271.4581 0001661 277.8112 186.0242 15.74660891  3085
STARLINK-31532          
1 59349U 24060B   24103.58334491 -.00932628  00000+0 -68794-2 0  9996
2 59349  43.0007 271.4533 0001722 279.7900 186.0140 15.74689711  3199
STARLINK-31593          
1 59350U 24060C   24103.58334491 -.00925893  00000+0 -68364-2 0  9997
2 59350  43.0006 271.4476 0001616 273.1785 194.6955 15.74649627  3143
STARLINK-31555          
1 59351U 24060D   24103.58334491 -.00903272  00000+0 -66662-2 0  9994
2 59351  43.0006 271.4427 0001344 272.9711 196.9755 15.74599704  3192
STARLINK-31561          
1 59352U 24060E   24103.58334491 -.00880642  00000+0 -64940-2 0  9997
2 59352  43.0005 271.4372 0001642 276.9012 195.1120 15.74551865  3148
